[{"OBJECT_NAME":"STARLINK-1347","OBJECT_ID":"2020-025BH","EPOCH":"2026-03-09T07:06:35.755488","MEAN_MOTION":15.5392029,"ECCENTRICITY":0.00059618,"INCLINATION":53.0473,"RA_OF_ASC_NODE":31.3863,"ARG_OF_PERICENTER":61.4804,"MEAN_ANOMALY":298.6806,"EPHEMERIS_TYPE":0,"CLASSIFICATION_TYPE":"U","NORAD_CAT_ID":45586,"ELEMENT_SET_NO":999,"REV_AT_EPOCH":32610,"BSTAR":0.001568397,"MEAN_MOTION_DOT":0.00103845,"MEAN_MOTION_DDOT":0},{"OBJECT_NAME":"MDQUBESAT-2","OBJECT_ID":"2023-185P","EPOCH":"2026-03-09T22:55:20.181216","MEAN_MOTION":15.58445161,"ECCENTRICITY":0.00075381,"INCLINATION":97.5425,"RA_OF_ASC_NODE":156.0719,"ARG_OF_PERICENTER":237.8799,"MEAN_ANOMALY":122.1726,"EPHEMERIS_TYPE":0,"CLASSIFICATION_TYPE":"U","NORAD_CAT_ID":58665,"ELEMENT_SET_NO":999,"REV_AT_EPOCH":12232,"BSTAR":0.0018049813,"MEAN_MOTION_DOT":0.00139688,"MEAN_MOTION_DDOT":0}]
